[
  {
    "OBJECT_NAME": "2024-149A",
    "OBJECT_ID": "2024-149A",
    "EPOCH": "2025-09-19T22:38:56.054976",
    "MEAN_MOTION": 15.26803606,
    "ECCENTRICITY": 0.00052312,
    "INCLINATION": 97.401,
    "RA_OF_ASC_NODE": 339.4345,
    "ARG_OF_PERICENTER": 102.4686,
    "MEAN_ANOMALY": 257.7139,
    "EPHEMERIS_TYPE": 0,
    "CLASSIFICATION_TYPE": "U",
    "NORAD_CAT_ID": 60468,
    "ELEMENT_SET_NO": 999,
    "REV_AT_EPOCH": 6073,
    "BSTAR": 0.00033094549,
    "MEAN_MOTION_DOT": 8.65e-05,
    "MEAN_MOTION_DDOT": 0,
    "TLE": {
      "line1": "1 60468U 24149A   25262.94370434  .00008650  00000+0  33095-3 0  9996",
      "line2": "2 60468  97.4010 339.4345 0005231 102.4686 257.7139 15.26803606 60733"
    }
  },
  {
    "OBJECT_NAME": "STARLINK-33667",
    "OBJECT_ID": "2025-070Y",
    "EPOCH": "2025-09-19T22:51:24.602976",
    "MEAN_MOTION": 15.50234125,
    "ECCENTRICITY": 0.00084135,
    "INCLINATION": 43.003,
    "RA_OF_ASC_NODE": 104.705,
    "ARG_OF_PERICENTER": 283.808,
    "MEAN_ANOMALY": 76.1844,
    "EPHEMERIS_TYPE": 0,
    "CLASSIFICATION_TYPE": "U",
    "NORAD_CAT_ID": 63482,
    "ELEMENT_SET_NO": 999,
    "REV_AT_EPOCH": 2731,
    "BSTAR": 0.0017266084,
    "MEAN_MOTION_DOT": 0.00101141,
    "MEAN_MOTION_DDOT": 0,
    "TLE": {
      "line1": "1 63482U 25070Y   25262.95236809  .00101141  00000+0  17266-2 0  9997",
      "line2": "2 63482  43.0030 104.7050 0008413 283.8080  76.1844 15.50234125 27318"
    }
  },
  {
    "OBJECT_NAME": "STARLINK-33925",
    "OBJECT_ID": "2025-091U",
    "EPOCH": "2025-09-20T03:44:34.066176",
    "MEAN_MOTION": 15.27586308,
    "ECCENTRICITY": 0.00021933,
    "INCLINATION": 43.0015,
    "RA_OF_ASC_NODE": 295.4046,
    "ARG_OF_PERICENTER": 282.6528,
    "MEAN_ANOMALY": 77.4078,
    "EPHEMERIS_TYPE": 0,
    "CLASSIFICATION_TYPE": "U",
    "NORAD_CAT_ID": 63793,
    "ELEMENT_SET_NO": 999,
    "REV_AT_EPOCH": 2293,
    "BSTAR": 0.001082955,
    "MEAN_MOTION_DOT": 0.00029665,
    "MEAN_MOTION_DDOT": 0,
    "TLE": {
      "line1": "1 63793U 25091U   25263.15594984  .00029665  00000+0  10830-2 0  9999",
      "line2": "2 63793  43.0015 295.4046 0002193 282.6528  77.4078 15.27586308 22935"
    }
  },
  {
    "OBJECT_NAME": "STARLINK-2128",
    "OBJECT_ID": "2021-005BH",
    "EPOCH": "2025-09-19T21:51:48.691872",
    "MEAN_MOTION": 15.06386322,
    "ECCENTRICITY": 0.00014702,
    "INCLINATION": 53.0553,
    "RA_OF_ASC_NODE": 78.2761,
    "ARG_OF_PERICENTER": 84.4384,
    "MEAN_ANOMALY": 275.6773,
    "EPHEMERIS_TYPE": 0,
    "CLASSIFICATION_TYPE": "U",
    "NORAD_CAT_ID": 47404,
    "ELEMENT_SET_NO": 999,
    "REV_AT_EPOCH": 25772,
    "BSTAR": -6.7418521e-05,
    "MEAN_MOTION_DOT": -1.285e-05,
    "MEAN_MOTION_DDOT": 0,
    "TLE": {
      "line1": "1 47404U 21005BH  25262.91098023 -.00001285  00000+0 -67419-4 0  9994",
      "line2": "2 47404  53.0553  78.2761 0001470  84.4384 275.6773 15.06386322257722"
    }
  },
  {
    "OBJECT_NAME": "STARLINK-11152 [DTC]",
    "OBJECT_ID": "2024-124M",
    "EPOCH": "2025-09-19T13:06:54.921600",
    "MEAN_MOTION": 15.69699722,
    "ECCENTRICITY": 0.00011114,
    "INCLINATION": 53.1585,
    "RA_OF_ASC_NODE": 284.9609,
    "ARG_OF_PERICENTER": 79.3207,
    "MEAN_ANOMALY": 280.7936,
    "EPHEMERIS_TYPE": 0,
    "CLASSIFICATION_TYPE": "U",
    "NORAD_CAT_ID": 60194,
    "ELEMENT_SET_NO": 999,
    "REV_AT_EPOCH": 7084,
    "BSTAR": 2.758981e-06,
    "MEAN_MOTION_DOT": -2.54e-06,
    "MEAN_MOTION_DDOT": 0,
    "TLE": {
      "line1": "1 60194U 24124M   25262.54646900 -.00000254  00000+0  27590-5 0  9993",
      "line2": "2 60194  53.1585 284.9609 0001111  79.3207 280.7936 15.69699722 70849"
    }
  },
  {
    "OBJECT_NAME": "STARLINK-2389",
    "OBJECT_ID": "2021-018X",
    "EPOCH": "2025-09-19T19:02:36.240864",
    "MEAN_MOTION": 15.06397122,
    "ECCENTRICITY": 0.00014863,
    "INCLINATION": 53.0523,
    "RA_OF_ASC_NODE": 293.7995,
    "ARG_OF_PERICENTER": 91.7934,
    "MEAN_ANOMALY": 268.3226,
    "EPHEMERIS_TYPE": 0,
    "CLASSIFICATION_TYPE": "U",
    "NORAD_CAT_ID": 47808,
    "ELEMENT_SET_NO": 999,
    "REV_AT_EPOCH": 25096,
    "BSTAR": 2.8449699e-05,
    "MEAN_MOTION_DOT": 1.42e-06,
    "MEAN_MOTION_DDOT": 0,
    "TLE": {
      "line1": "1 47808U 21018X   25262.79347501  .00000142  00000+0  28450-4 0  9991",
      "line2": "2 47808  53.0523 293.7995 0001486  91.7934 268.3226 15.06397122250960"
    }
  },
  {
    "OBJECT_NAME": "SAUDICOMSAT 1",
    "OBJECT_ID": "2004-025D",
    "EPOCH": "2025-09-19T22:53:34.495008",
    "MEAN_MOTION": 14.55123538,
    "ECCENTRICITY": 0.00332914,
    "INCLINATION": 98.5765,
    "RA_OF_ASC_NODE": 260.8668,
    "ARG_OF_PERICENTER": 129.7244,
    "MEAN_ANOMALY": 230.6895,
    "EPHEMERIS_TYPE": 0,
    "CLASSIFICATION_TYPE": "U",
    "NORAD_CAT_ID": 28369,
    "ELEMENT_SET_NO": 999,
    "REV_AT_EPOCH": 12482,
    "BSTAR": 0.00011558234,
    "MEAN_MOTION_DOT": 4.53e-06,
    "MEAN_MOTION_DDOT": 0,
    "TLE": {
      "line1": "1 28369U 04025D   25262.95387147  .00000453  00000+0  11558-3 0  9994",
      "line2": "2 28369  98.5765 260.8668 0033291 129.7244 230.6895 14.55123538124820"
    }
  },
  {
    "OBJECT_NAME": "STARLINK-5334",
    "OBJECT_ID": "2023-065G",
    "EPOCH": "2025-09-18T21:57:12.081888",
    "MEAN_MOTION": 15.0254524,
    "ECCENTRICITY": 0.0001668,
    "INCLINATION": 43.0037,
    "RA_OF_ASC_NODE": 63.8642,
    "ARG_OF_PERICENTER": 240.4895,
    "MEAN_ANOMALY": 119.5782,
    "EPHEMERIS_TYPE": 0,
    "CLASSIFICATION_TYPE": "U",
    "NORAD_CAT_ID": 56509,
    "ELEMENT_SET_NO": 999,
    "REV_AT_EPOCH": 13078,
    "BSTAR": 0.00012410614,
    "MEAN_MOTION_DOT": 1.474e-05,
    "MEAN_MOTION_DDOT": 0,
    "TLE": {
      "line1": "1 56509U 23065G   25261.91472317  .00001474  00000+0  12411-3 0  9998",
      "line2": "2 56509  43.0037  63.8642 0001668 240.4895 119.5782 15.02545240130786"
    }
  },
  {
    "OBJECT_NAME": "STARLINK-6130",
    "OBJECT_ID": "2023-090D",
    "EPOCH": "2025-09-20T00:03:35.733888",
    "MEAN_MOTION": 15.02536055,
    "ECCENTRICITY": 0.00014668,
    "INCLINATION": 43.0049,
    "RA_OF_ASC_NODE": 122.4585,
    "ARG_OF_PERICENTER": 264.9956,
    "MEAN_ANOMALY": 95.0719,
    "EPHEMERIS_TYPE": 0,
    "CLASSIFICATION_TYPE": "U",
    "NORAD_CAT_ID": 57104,
    "ELEMENT_SET_NO": 999,
    "REV_AT_EPOCH": 12473,
    "BSTAR": 2.2976027e-05,
    "MEAN_MOTION_DOT": 1.07e-06,
    "MEAN_MOTION_DDOT": 0,
    "TLE": {
      "line1": "1 57104U 23090D   25263.00249692  .00000107  00000+0  22976-4 0  9998",
      "line2": "2 57104  43.0049 122.4585 0001466 264.9956  95.0719 15.02536055124734"
    }
  },
  {
    "OBJECT_NAME": "STARLINK-4513",
    "OBJECT_ID": "2022-101X",
    "EPOCH": "2025-09-19T20:15:46.333728",
    "MEAN_MOTION": 15.08837988,
    "ECCENTRICITY": 0.00013315,
    "INCLINATION": 53.2162,
    "RA_OF_ASC_NODE": 111.075,
    "ARG_OF_PERICENTER": 93.4688,
    "MEAN_ANOMALY": 266.6457,
    "EPHEMERIS_TYPE": 0,
    "CLASSIFICATION_TYPE": "U",
    "NORAD_CAT_ID": 53548,
    "ELEMENT_SET_NO": 999,
    "REV_AT_EPOCH": 17051,
    "BSTAR": 1.5350784e-05,
    "MEAN_MOTION_DOT": -4.4e-07,
    "MEAN_MOTION_DDOT": 0,
    "TLE": {
      "line1": "1 53548U 22101X   25262.84428627 -.00000044  00000+0  15351-4 0  9996",
      "line2": "2 53548  53.2162 111.0750 0001331  93.4688 266.6457 15.08837988170514"
    }
  },
  {
    "OBJECT_NAME": "STARLINK-32205",
    "OBJECT_ID": "2024-131M",
    "EPOCH": "2025-09-20T00:11:27.263616",
    "MEAN_MOTION": 15.30192639,
    "ECCENTRICITY": 0.00011879,
    "INCLINATION": 53.1592,
    "RA_OF_ASC_NODE": 125.4413,
    "ARG_OF_PERICENTER": 99.951,
    "MEAN_ANOMALY": 260.1625,
    "EPHEMERIS_TYPE": 0,
    "CLASSIFICATION_TYPE": "U",
    "NORAD_CAT_ID": 60266,
    "ELEMENT_SET_NO": 999,
    "REV_AT_EPOCH": 6558,
    "BSTAR": -1.9394015e-05,
    "MEAN_MOTION_DOT": -9.33e-06,
    "MEAN_MOTION_DDOT": 0,
    "TLE": {
      "line1": "1 60266U 24131M   25263.00795444 -.00000933  00000+0 -19394-4 0  9998",
      "line2": "2 60266  53.1592 125.4413 0001187  99.9510 260.1625 15.30192639 65582"
    }
  },
  {
    "OBJECT_NAME": "STARLINK-3970",
    "OBJECT_ID": "2022-053BC",
    "EPOCH": "2025-09-20T01:08:32.825760",
    "MEAN_MOTION": 15.08842745,
    "ECCENTRICITY": 0.00013656,
    "INCLINATION": 53.2167,
    "RA_OF_ASC_NODE": 180.1628,
    "ARG_OF_PERICENTER": 92.5018,
    "MEAN_ANOMALY": 267.6131,
    "EPHEMERIS_TYPE": 0,
    "CLASSIFICATION_TYPE": "U",
    "NORAD_CAT_ID": 52706,
    "ELEMENT_SET_NO": 999,
    "REV_AT_EPOCH": 18555,
    "BSTAR": 2.1352096e-05,
    "MEAN_MOTION_DOT": 5.2e-07,
    "MEAN_MOTION_DDOT": 0,
    "TLE": {
      "line1": "1 52706U 22053BC  25263.04760215  .00000052  00000+0  21352-4 0  9998",
      "line2": "2 52706  53.2167 180.1628 0001365  92.5018 267.6131 15.08842745185556"
    }
  },
  {
    "OBJECT_NAME": "STARLINK-2460",
    "OBJECT_ID": "2021-027AE",
    "EPOCH": "2025-09-20T03:50:02.934816",
    "MEAN_MOTION": 15.06404494,
    "ECCENTRICITY": 0.00013917,
    "INCLINATION": 53.0549,
    "RA_OF_ASC_NODE": 217.1578,
    "ARG_OF_PERICENTER": 86.8257,
    "MEAN_ANOMALY": 273.2891,
    "EPHEMERIS_TYPE": 0,
    "CLASSIFICATION_TYPE": "U",
    "NORAD_CAT_ID": 48120,
    "ELEMENT_SET_NO": 999,
    "REV_AT_EPOCH": 24672,
    "BSTAR": 0.00010353422,
    "MEAN_MOTION_DOT": 1.261e-05,
    "MEAN_MOTION_DDOT": 0,
    "TLE": {
      "line1": "1 48120U 21027AE  25263.15975619  .00001261  00000+0  10353-3 0  9992",
      "line2": "2 48120  53.0549 217.1578 0001391  86.8257 273.2891 15.06404494246724"
    }
  }
]